{
  "type": "FeatureCollection",
  "features": [
    {
      "type": "Feature",
      "properties": {
        "norad_id": 30641,
        "name": "FENGYUN 1C DEB",
        "group": "fengyun-1c-debris",
        "lat": 55.83412776803781,
        "lon": 107.91367211195254,
        "alt_km": 539.0217273201688,
        "timestamp": "2025-12-06T18:50:10.446157+00:00",
        "meta_object_name": "FENGYUN 1C DEB",
        "meta_object_id": "1999-025ANY",
        "meta_epoch": "2025-12-05T18:11:29.289696",
        "meta_mean_motion": 14.78879292,
        "meta_eccentricity": 0.01359677,
        "meta_inclination": 98.9426,
        "meta_ra_of_asc_node": 273.3582,
        "meta_arg_of_pericenter": 148.4837,
        "meta_mean_anomaly": 271.357,
        "meta_ephemeris_type": 0,
        "meta_classification_type": "U",
        "meta_norad_cat_id": 30641,
        "meta_element_set_no": 999,
        "meta_rev_at_epoch": 429,
        "meta_bstar": 0.00087613497,
        "meta_mean_motion_dot": 7.478e-05,
        "meta_mean_motion_ddot": 0,
        "tle_line1": "1 30641U 99025ANY 25339.75797789  .00007478  00000+0  87613-3 0  9993",
        "tle_line2": "2 30641  98.9426 273.3582 0135967 148.4837 271.3570 14.78879292  4297"
      },
      "geometry": {
        "type": "Point",
        "coordinates": [
          107.91367211195254,
          55.83412776803781
        ]
      }
    },
    {
      "type": "Feature",
      "properties": {
        "norad_id": 30646,
        "name": "FENGYUN 1C DEB",
        "group": "fengyun-1c-debris",
        "lat": -79.9916399682595,
        "lon": 121.91756337117316,
        "alt_km": 896.2682486010517,
        "timestamp": "2025-12-06T18:50:10.446168+00:00",
        "meta_object_name": "FENGYUN 1C DEB",
        "meta_object_id": "1999-025APD",
        "meta_epoch": "2025-12-06T07:21:44.445024",
        "meta_mean_motion": 14.09629423,
        "meta_eccentricity": 0.0048506,
        "meta_inclination": 98.6528,
        "meta_ra_of_asc_node": 1.0968,
        "meta_arg_of_pericenter": 50.1797,
        "meta_mean_anomaly": 310.3628,
        "meta_ephemeris_type": 0,
        "meta_classification_type": "U",
        "meta_norad_cat_id": 30646,
        "meta_element_set_no": 999,
        "meta_rev_at_epoch": 96514,
        "meta_bstar": 0.0011140467,
        "meta_mean_motion_dot": 1.932e-05,
        "meta_mean_motion_ddot": 0,
        "tle_line1": "1 30646U 99025APD 25340.30676441  .00001932  00000+0  11140-2 0  9992",
        "tle_line2": "2 30646  98.6528   1.0968 0048506  50.1797 310.3628 14.09629423965143"
      },
      "geometry": {
        "type": "Point",
        "coordinates": [
          121.91756337117316,
          -79.9916399682595
        ]
      }
    },
    {
      "type": "Feature",
      "properties": {
        "norad_id": 30647,
        "name": "FENGYUN 1C DEB",
        "group": "fengyun-1c-debris",
        "lat": 78.8736984079192,
        "lon": -141.22990840706348,
        "alt_km": 704.7107402807696,
        "timestamp": "2025-12-06T18:50:10.446178+00:00",
        "meta_object_name": "FENGYUN 1C DEB",
        "meta_object_id": "1999-025APE",
        "meta_epoch": "2025-12-04T18:52:56.020800",
        "meta_mean_motion": 14.56227165,
        "meta_eccentricity": 0.00288037,
        "meta_inclination": 98.989,
        "meta_ra_of_asc_node": 270.2156,
        "meta_arg_of_pericenter": 199.8234,
        "meta_mean_anomaly": 214.8083,
        "meta_ephemeris_type": 0,
        "meta_classification_type": "U",
        "meta_norad_cat_id": 30647,
        "meta_element_set_no": 999,
        "meta_rev_at_epoch": 97873,
        "meta_bstar": 0.0059112224,
        "meta_mean_motion_dot": 0.0002633,
        "meta_mean_motion_ddot": 0,
        "tle_line1": "1 30647U 99025APE 25338.78675950  .00026330  00000+0  59112-2 0  9996",
        "tle_line2": "2 30647  98.9890 270.2156 0028803 199.8234 214.8083 14.56227165978734"
      },
      "geometry": {
        "type": "Point",
        "coordinates": [
          -141.22990840706348,
          78.8736984079192
        ]
      }
    },
    {
      "type": "Feature",
      "properties": {
        "norad_id": 30648,
        "name": "FENGYUN 1C DEB",
        "group": "fengyun-1c-debris",
        "lat": 48.68619879675836,
        "lon": 65.34299484719645,
        "alt_km": 730.2570323470945,
        "timestamp": "2025-12-06T18:50:10.446187+00:00",
        "meta_object_name": "FENGYUN 1C DEB",
        "meta_object_id": "1999-025APF",
        "meta_epoch": "2025-12-06T05:28:36.501600",
        "meta_mean_motion": 14.47956529,
        "meta_eccentricity": 0.00348713,
        "meta_inclination": 98.6433,
        "meta_ra_of_asc_node": 74.7397,
        "meta_arg_of_pericenter": 146.907,
        "meta_mean_anomaly": 243.0891,
        "meta_ephemeris_type": 0,
        "meta_classification_type": "U",
        "meta_norad_cat_id": 30648,
        "meta_element_set_no": 999,
        "meta_rev_at_epoch": 97772,
        "meta_bstar": 0.0036173936,
        "meta_mean_motion_dot": 0.00013502,
        "meta_mean_motion_ddot": 0,
        "tle_line1": "1 30648U 99025APF 25340.22820025  .00013502  00000+0  36174-2 0  9994",
        "tle_line2": "2 30648  98.6433  74.7397 0034871 146.9070 243.0891 14.47956529977724"
      },
      "geometry": {
        "type": "Point",
        "coordinates": [
          65.34299484719645,
          48.68619879675836
        ]
      }
    },
    {
      "type": "Feature",
      "properties": {
        "norad_id": 30649,
        "name": "FENGYUN 1C DEB",
        "group": "fengyun-1c-debris",
        "lat": -57.40999180066092,
        "lon": -118.01124093631279,
        "alt_km": 776.9859289144206,
        "timestamp": "2025-12-06T18:50:10.446198+00:00",
        "meta_object_name": "FENGYUN 1C DEB",
        "meta_object_id": "1999-025APG",
        "meta_epoch": "2025-12-06T06:05:23.959392",
        "meta_mean_motion": 14.2943184,
        "meta_eccentricity": 0.00514001,
        "meta_inclination": 98.8102,
        "meta_ra_of_asc_node": 75.492,
        "meta_arg_of_pericenter": 189.6847,
        "meta_mean_anomaly": 196.8497,
        "meta_ephemeris_type": 0,
        "meta_classification_type": "U",
        "meta_norad_cat_id": 30649,
        "meta_element_set_no": 999,
        "meta_rev_at_epoch": 96971,
        "meta_bstar": 0.0036346614,
        "meta_mean_motion_dot": 9.372e-05,
        "meta_mean_motion_ddot": 0,
        "tle_line1": "1 30649U 99025APG 25340.25374953  .00009372  00000+0  36347-2 0  9994",
        "tle_line2": "2 30649  98.8102  75.4920 0051400 189.6847 196.8497 14.29431840969714"
      },
      "geometry": {
        "type": "Point",
        "coordinates": [
          -118.01124093631279,
          -57.40999180066092
        ]
      }
    },
    {
      "type": "Feature",
      "properties": {
        "norad_id": 30650,
        "name": "FENGYUN 1C DEB",
        "group": "fengyun-1c-debris",
        "lat": -28.89592142572879,
        "lon": -163.93668796692407,
        "alt_km": 799.8994884033891,
        "timestamp": "2025-12-06T18:50:10.446210+00:00",
        "meta_object_name": "FENGYUN 1C DEB",
        "meta_object_id": "1999-025APH",
        "meta_epoch": "2025-12-05T15:16:36.424416",
        "meta_mean_motion": 14.13874756,
        "meta_eccentricity": 0.00720758,
        "meta_inclination": 99.2041,
        "meta_ra_of_asc_node": 20.0159,
        "meta_arg_of_pericenter": 209.2498,
        "meta_mean_anomaly": 278.264,
        "meta_ephemeris_type": 0,
        "meta_classification_type": "U",
        "meta_norad_cat_id": 30650,
        "meta_element_set_no": 999,
        "meta_rev_at_epoch": 96198,
        "meta_bstar": 0.0029207992,
        "meta_mean_motion_dot": 5.632e-05,
        "meta_mean_motion_ddot": 0,
        "tle_line1": "1 30650U 99025APH 25339.63653269  .00005632  00000+0  29208-2 0  9999",
        "tle_line2": "2 30650  99.2041  20.0159 0072075 209.2498 278.2640 14.13874756961981"
      },
      "geometry": {
        "type": "Point",
        "coordinates": [
          -163.93668796692407,
          -28.89592142572879
        ]
      }
    },
    {
      "type": "Feature",
      "properties": {
        "norad_id": 30652,
        "name": "FENGYUN 1C DEB",
        "group": "fengyun-1c-debris",
        "lat": 41.95117613014139,
        "lon": 6.088873149160761,
        "alt_km": 865.9395923432166,
        "timestamp": "2025-12-06T18:50:10.446219+00:00",
        "meta_object_name": "FENGYUN 1C DEB",
        "meta_object_id": "1999-025APJ",
        "meta_epoch": "2025-12-06T01:42:37.245024",
        "meta_mean_motion": 14.07801706,
        "meta_eccentricity": 0.00073721,
        "meta_inclination": 98.7858,
        "meta_ra_of_asc_node": 13.3853,
        "meta_arg_of_pericenter": 286.7393,
        "meta_mean_anomaly": 101.3639,
        "meta_ephemeris_type": 0,
        "meta_classification_type": "U",
        "meta_norad_cat_id": 30652,
        "meta_element_set_no": 999,
        "meta_rev_at_epoch": 96600,
        "meta_bstar": 9.1987408e-05,
        "meta_mean_motion_dot": 1.13e-06,
        "meta_mean_motion_ddot": 0,
        "tle_line1": "1 30652U 99025APJ 25340.07126441  .00000113  00000+0  91987-4 0  9992",
        "tle_line2": "2 30652  98.7858  13.3853 0007372 286.7393 101.3639 14.07801706966001"
      },
      "geometry": {
        "type": "Point",
        "coordinates": [
          6.088873149160761,
          41.95117613014139
        ]
      }
    }
  ]
}